PHISAT 2                
1 60470U 24149C   26068.78834181  .00008925  00000+0  31421-3 0  9996
2 60470  97.3806 148.6498 0001175 168.6230 191.5037 15.29548631 86792
STARLINK-35829          
1 66350U 25254C   26068.73388717  .00026769  00000+0  91256-3 0  9999
2 66350  53.1581 232.1638 0001128  64.5274 295.5843 15.30204476 18984
